{
  "type": "FeatureCollection",
  "features": [
    {
      "type": "Feature",
      "properties": {
        "norad_id": 51444,
        "name": "CSG-2",
        "group": "resource",
        "lat": -63.68019969075982,
        "lon": -178.66587538273893,
        "alt_km": 630.6040687474424,
        "timestamp": "2025-12-09T16:56:36.238003+00:00",
        "meta_object_name": "CSG-2",
        "meta_object_id": "2022-008A",
        "meta_epoch": "2025-12-09T12:22:28.765344",
        "meta_mean_motion": 14.82156992,
        "meta_eccentricity": 0.0001469,
        "meta_inclination": 97.8802,
        "meta_ra_of_asc_node": 164.8868,
        "meta_arg_of_pericenter": 83.6367,
        "meta_mean_anomaly": 276.5014,
        "meta_ephemeris_type": 0,
        "meta_classification_type": "U",
        "meta_norad_cat_id": 51444,
        "meta_element_set_no": 999,
        "meta_rev_at_epoch": 20849,
        "meta_bstar": 5.6361e-05,
        "meta_mean_motion_dot": 3.97e-06,
        "meta_mean_motion_ddot": 0,
        "tle_line1": "1 51444U 22008A   25343.51561071  .00000397  00000+0  56361-4 0  9996",
        "tle_line2": "2 51444  97.8802 164.8868 0001469  83.6367 276.5014 14.82156992208493"
      },
      "geometry": {
        "type": "Point",
        "coordinates": [
          -178.66587538273893,
          -63.68019969075982
        ]
      }
    },
    {
      "type": "Feature",
      "properties": {
        "norad_id": 52912,
        "name": "GAOFEN-12 03",
        "group": "resource",
        "lat": -58.85918480474702,
        "lon": 37.92871871339122,
        "alt_km": 639.3112569500609,
        "timestamp": "2025-12-09T16:56:36.238012+00:00",
        "meta_object_name": "GAOFEN-12 03",
        "meta_object_id": "2022-069A",
        "meta_epoch": "2025-12-09T12:37:02.168256",
        "meta_mean_motion": 14.79597161,
        "meta_eccentricity": 0.0002277,
        "meta_inclination": 97.8481,
        "meta_ra_of_asc_node": 230.9487,
        "meta_arg_of_pericenter": 66.4978,
        "meta_mean_anomaly": 293.6473,
        "meta_ephemeris_type": 0,
        "meta_classification_type": "U",
        "meta_norad_cat_id": 52912,
        "meta_element_set_no": 999,
        "meta_rev_at_epoch": 18656,
        "meta_bstar": 0.00025289,
        "meta_mean_motion_dot": 1.844e-05,
        "meta_mean_motion_ddot": 0,
        "tle_line1": "1 52912U 22069A   25343.52571954  .00001844  00000+0  25289-3 0  9998",
        "tle_line2": "2 52912  97.8481 230.9487 0002277  66.4978 293.6473 14.79597161186569"
      },
      "geometry": {
        "type": "Point",
        "coordinates": [
          37.92871871339122,
          -58.85918480474702
        ]
      }
    },
    {
      "type": "Feature",
      "properties": {
        "norad_id": 54754,
        "name": "SWOT",
        "group": "resource",
        "lat": 0.16994891926204164,
        "lon": -68.87756283488,
        "alt_km": 896.0428572208466,
        "timestamp": "2025-12-09T16:56:36.238023+00:00",
        "meta_object_name": "SWOT",
        "meta_object_id": "2022-173A",
        "meta_epoch": "2025-12-09T11:47:52.359936",
        "meta_mean_motion": 14.00174004,
        "meta_eccentricity": 3.34e-05,
        "meta_inclination": 77.6104,
        "meta_ra_of_asc_node": 291.3744,
        "meta_arg_of_pericenter": 121.9168,
        "meta_mean_anomaly": 238.2016,
        "meta_ephemeris_type": 0,
        "meta_classification_type": "U",
        "meta_norad_cat_id": 54754,
        "meta_element_set_no": 999,
        "meta_rev_at_epoch": 15260,
        "meta_bstar": 6.7637e-05,
        "meta_mean_motion_dot": 9.7e-07,
        "meta_mean_motion_ddot": 0,
        "tle_line1": "1 54754U 22173A   25343.49157824  .00000097  00000+0  67637-4 0  9995",
        "tle_line2": "2 54754  77.6104 291.3744 0000334 121.9168 238.2016 14.00174004152607"
      },
      "geometry": {
        "type": "Point",
        "coordinates": [
          -68.87756283488,
          0.16994891926204164
        ]
      }
    },
    {
      "type": "Feature",
      "properties": {
        "norad_id": 57654,
        "name": "GAOFEN-12 04",
        "group": "resource",
        "lat": 47.61188353163818,
        "lon": -109.25448763705063,
        "alt_km": 625.2198804450072,
        "timestamp": "2025-12-09T16:56:36.238033+00:00",
        "meta_object_name": "GAOFEN-12 04",
        "meta_object_id": "2023-123A",
        "meta_epoch": "2025-12-09T13:28:49.299744",
        "meta_mean_motion": 14.79686487,
        "meta_eccentricity": 0.0001359,
        "meta_inclination": 97.9118,
        "meta_ra_of_asc_node": 259.3671,
        "meta_arg_of_pericenter": 71.9555,
        "meta_mean_anomaly": 288.1805,
        "meta_ephemeris_type": 0,
        "meta_classification_type": "U",
        "meta_norad_cat_id": 57654,
        "meta_element_set_no": 999,
        "meta_rev_at_epoch": 12458,
        "meta_bstar": 0.00033982,
        "meta_mean_motion_dot": 2.5e-05,
        "meta_mean_motion_ddot": 0,
        "tle_line1": "1 57654U 23123A   25343.56168171  .00002500  00000+0  33982-3 0  9994",
        "tle_line2": "2 57654  97.9118 259.3671 0001359  71.9555 288.1805 14.79686487124589"
      },
      "geometry": {
        "type": "Point",
        "coordinates": [
          -109.25448763705063,
          47.61188353163818
        ]
      }
    },
    {
      "type": "Feature",
      "properties": {
        "norad_id": 59065,
        "name": "PARS 1",
        "group": "resource",
        "lat": 42.02454075234615,
        "lon": 141.35996676008105,
        "alt_km": 435.39117572026225,
        "timestamp": "2025-12-09T16:56:36.238043+00:00",
        "meta_object_name": "PARS 1",
        "meta_object_id": "2024-039Q",
        "meta_epoch": "2025-12-09T13:13:58.321344",
        "meta_mean_motion": 15.40863119,
        "meta_eccentricity": 0.001269,
        "meta_inclination": 97.4638,
        "meta_ra_of_asc_node": 314.4169,
        "meta_arg_of_pericenter": 81.7661,
        "meta_mean_anomaly": 278.5023,
        "meta_ephemeris_type": 0,
        "meta_classification_type": "U",
        "meta_norad_cat_id": 59065,
        "meta_element_set_no": 999,
        "meta_rev_at_epoch": 9939,
        "meta_bstar": 0.00039705,
        "meta_mean_motion_dot": 0.00016271,
        "meta_mean_motion_ddot": 0,
        "tle_line1": "1 59065U 24039Q   25343.55136946  .00016271  00000+0  39705-3 0  9992",
        "tle_line2": "2 59065  97.4638 314.4169 0012690  81.7661 278.5023 15.40863119 99394"
      },
      "geometry": {
        "type": "Point",
        "coordinates": [
          141.35996676008105,
          42.02454075234615
        ]
      }
    },
    {
      "type": "Feature",
      "properties": {
        "norad_id": 59371,
        "name": "RESURS-P 4",
        "group": "resource",
        "lat": 15.752278378119671,
        "lon": -71.96101853385672,
        "alt_km": 469.57994070279165,
        "timestamp": "2025-12-09T16:56:36.238054+00:00",
        "meta_object_name": "RESURS-P 4",
        "meta_object_id": "2024-061A",
        "meta_epoch": "2025-12-09T12:10:17.952672",
        "meta_mean_motion": 15.32046232,
        "meta_eccentricity": 0.0001745,
        "meta_inclination": 97.2544,
        "meta_ra_of_asc_node": 289.9034,
        "meta_arg_of_pericenter": 52.9671,
        "meta_mean_anomaly": 307.173,
        "meta_ephemeris_type": 0,
        "meta_classification_type": "U",
        "meta_norad_cat_id": 59371,
        "meta_element_set_no": 999,
        "meta_rev_at_epoch": 9471,
        "meta_bstar": 0.00020231,
        "meta_mean_motion_dot": 6.183e-05,
        "meta_mean_motion_ddot": 0,
        "tle_line1": "1 59371U 24061A   25343.50715223  .00006183  00000+0  20231-3 0  9998",
        "tle_line2": "2 59371  97.2544 289.9034 0001745  52.9671 307.1730 15.32046232 94710"
      },
      "geometry": {
        "type": "Point",
        "coordinates": [
          -71.96101853385672,
          15.752278378119671
        ]
      }
    },
    {
      "type": "Feature",
      "properties": {
        "norad_id": 59625,
        "name": "LEGION 1",
        "group": "resource",
        "lat": 50.56208131841647,
        "lon": 49.126812390095466,
        "alt_km": 511.5585009964707,
        "timestamp": "2025-12-09T16:56:36.238064+00:00",
        "meta_object_name": "LEGION 1",
        "meta_object_id": "2024-081A",
        "meta_epoch": "2025-12-09T11:58:03.443808",
        "meta_mean_motion": 15.16429397,
        "meta_eccentricity": 0.0004234,
        "meta_inclination": 97.5211,
        "meta_ra_of_asc_node": 58.1646,
        "meta_arg_of_pericenter": 331.3376,
        "meta_mean_anomaly": 28.7624,
        "meta_ephemeris_type": 0,
        "meta_classification_type": "U",
        "meta_norad_cat_id": 59625,
        "meta_element_set_no": 999,
        "meta_rev_at_epoch": 8878,
        "meta_bstar": 0.00040622,
        "meta_mean_motion_dot": 7.835e-05,
        "meta_mean_motion_ddot": 0,
        "tle_line1": "1 59625U 24081A   25343.49865097  .00007835  00000+0  40622-3 0  9996",
        "tle_line2": "2 59625  97.5211  58.1646 0004234 331.3376  28.7624 15.16429397 88780"
      },
      "geometry": {
        "type": "Point",
        "coordinates": [
          49.126812390095466,
          50.56208131841647
        ]
      }
    }
  ]
}